STARLINK-37406          
1 69199U 26114T   26162.55843015  .00187948  00000+0  93318-3 0  9999
2 69199  53.1584 230.3146 0001014  79.8239 280.2898 15.80919775  3883
STARLINK-37761          
1 69200U 26114U   26162.62089949  .00255180  00000+0  12556-2 0  9996
2 69200  53.1581 229.9916 0001174  52.5446 307.5683 15.80924015  3896
STARLINK-37754          
1 69201U 26114V   26162.55672925 -.00037839  00000+0 -18891-3 0  9991
2 69201  53.1583 230.3028 0001170  78.7506 281.3649 15.80882956  3889
STARLINK-37649          
1 69202U 26114W   26162.55617819  .00132553  00000+0  66323-3 0  9993
2 69202  53.1584 230.3000 0001120  56.5780 303.5350 15.80926089  3886
STARLINK-37604          
1 69203U 26114X   26162.55542744  .00130636  00000+0  65375-3 0  9994
2 69203  53.1583 230.2941 0001135  63.5417 296.5722 15.80928933  3884
STARLINK-37669          
1 69204U 26114Y   26162.55467817  .00181253  00000+0  89979-3 0  9999
2 69204  53.1584 230.2893 0001237  52.6023 307.5112 15.80943340  3882
STARLINK-37691          
1 69205U 26114Z   26162.55909952  .00178574  00000+0  10090-2 0  9990
2 69205  53.1588 230.3175 0001171  90.5523 269.5633 15.78097845  3886
STARLINK-37671          
1 69206U 26114AA  26162.48995919  .00137588  00000+0  68820-3 0  9996
2 69206  53.1583 230.5959 0001174  67.4082 292.7065 15.80916258  3877
STARLINK-37647          
1 69207U 26114AB  26162.49070767  .00182282  00000+0  90522-3 0  9998
2 69207  53.1585 230.6014 0000952  84.0274 276.0857 15.80932541  3871
STARLINK-37562          
1 69208U 26114AC  26162.58335648 -.00015485  00000+0 -85521-4 0  9997
2 69208  53.1594 230.1368 0001018  78.6969  89.2686 15.78049237  3910
STARLINK-37682          
1 69209U 26114AD  26162.55092757  .00153675  00000+0  76649-3 0  9998
2 69209  53.1584 230.2636 0001033  79.3964 280.7175 15.80925909  3888
STARLINK-37402          
1 69210U 26114AE  26162.55017731  .00200417  00000+0  99244-3 0  9992
2 69210  53.1584 230.2585 0001270  58.8663 301.2484 15.80941217  3886
STARLINK-37613          
1 69211U 26115A   26162.58335648 -.02435547  00000+0 -43238-1 0  9995
2 69211  97.2846 179.6435 0001231  92.4055 287.8356 15.54014211  3796
STARLINK-37713          
1 69212U 26115B   26162.58335648 -.01141281  00000+0 -12095-1 0  9991
2 69212  97.2845 179.7160 0001478  85.4348 109.2671 15.66560262  3794
STARLINK-37716          
1 69213U 26115C   26162.58335648 -.02611252  00000+0 -20552-1 0  9990
2 69213  97.2847 179.7363 0001695 102.2335 144.7913 15.74647192  3797
STARLINK-37620          
1 69214U 26115D   26162.58335648  .00049359  00000+0  90644-3 0  9991
2 69214  97.2850 179.6080 0000675  63.3550 245.0417 15.49097328  3796
STARLINK-37700          
1 69215U 26115E   26162.58335648  .00018169  00000+0  33498-3 0  9991
2 69215  97.2843 179.5204 0001327  98.5210 358.0510 15.49187330  3796
STARLINK-37766          
1 69216U 26115F   26162.58335648 -.02028192  00000+0 -14555-1 0  9994
2 69216  97.2845 179.7474 0001704  94.1234 177.8501 15.77000116  3791
STARLINK-37763          
1 69217U 26115G   26162.58335648 -.00810987  00000+0 -68685-2 0  9998
2 69217  97.2845 179.7341 0001145 100.8021 143.1291 15.71942144  3795
STARLINK-37724          
1 69218U 26115H   26162.59609324  .00248575  00000+0  12572-2 0  9995
2 69218  97.2834 179.7676 0001675  61.3060 298.8377 15.80896186  3806
STARLINK-37758          
1 69219U 26115J   26162.59288222  .00214752  00000+0  10908-2 0  9997
2 69219  97.2828 179.7726 0001346  80.4890 279.6530 15.80890757  3800
STARLINK-37201          
1 69220U 26115K   26162.59411649  .00220272  00000+0  11179-2 0  9995
2 69220  97.2832 179.7711 0001447  78.0916 282.0515 15.80895034  3809
STARLINK-37728          
1 69221U 26115L   26162.52839296  .00307720  00000+0  15418-2 0  9995
2 69221  97.2830 179.7082 0002360  73.7354 286.4174 15.80948921  3793
STARLINK-37760          
1 69222U 26115M   26162.59407836  .11669154  00000+0  37744-1 0  9993
2 69222  97.2832 179.7714 0003304 258.8606 101.2293 15.85544915  3801
STARLINK-37759          
1 69223U 26115N   26162.58335648 -.02552267  00000+0 -23441-1 0  9991
2 69223  97.2849 179.7520 0001497 105.9992 179.0017 15.70970513  3792
STARLINK-37725          
1 69224U 26115P   26162.59143597  .00153324  00000+0  78472-3 0  9996
2 69224  97.2831 179.7747 0001893 133.8820 226.2605 15.80884742  3804
STARLINK-37770          
1 69225U 26115Q   26162.59214199  .00055900  00000+0  29000-3 0  9998
2 69225  97.2832 179.7731 0001682  76.4627 283.6829 15.80868908  3803
STARLINK-37736          
1 69226U 26115R   26162.59144125  .00213756  00000+0  10860-2 0  9998
2 69226  97.2827 179.7746 0001746  82.1033 278.0433 15.80887096  3808
STARLINK-37737          
1 69227U 26115S   26162.58944485  .00236339  00000+0  11967-2 0  9996
2 69227  97.2827 179.7766 0001301  82.6833 277.4584 15.80903153  3804
STARLINK-37618          
1 69228U 26115T   26162.58335648 -.02534769  00000+0 -24448-1 0  9991
2 69228  97.2849 179.7590 0001461 104.1342 198.1925 15.69779529  3797
