OBJECT_NAME,OBJECT_ID,EPOCH,MEAN_MOTION,ECCENTRICITY,INCLINATION,RA_OF_ASC_NODE,ARG_OF_PERICENTER,MEAN_ANOMALY,EPHEMERIS_TYPE,CLASSIFICATION_TYPE,NORAD_CAT_ID,ELEMENT_SET_NO,REV_AT_EPOCH,BSTAR,MEAN_MOTION_DOT,MEAN_MOTION_DDOT
STARLINK-37406,2026-114T,2026-06-11T13:24:08.364960,15.80919775,.00010145,53.1584,230.3146,79.8239,280.2898,0,U,69199,999,388,.93318252E-3,.187948E-2,0
STARLINK-37761,2026-114U,2026-06-11T14:54:05.715936,15.80924015,.00011746,53.1581,229.9916,52.5446,307.5683,0,U,69200,999,389,.12556157E-2,.25518E-2,0
STARLINK-37754,2026-114V,2026-06-11T13:21:41.407200,15.80882956,.00011705,53.1583,230.3028,78.7506,281.3649,0,U,69201,999,388,-.18891401E-3,-.37839E-3,0
STARLINK-37649,2026-114W,2026-06-11T13:20:53.795616,15.80926089,.00011201,53.1584,230.3000,56.5780,303.5350,0,U,69202,999,388,.66323312E-3,.132553E-2,0
STARLINK-37604,2026-114X,2026-06-11T13:19:48.930816,15.80928933,.00011356,53.1583,230.2941,63.5417,296.5722,0,U,69203,999,388,.65375099E-3,.130636E-2,0
STARLINK-37669,2026-114Y,2026-06-11T13:18:44.193888,15.80943340,.00012371,53.1584,230.2893,52.6023,307.5112,0,U,69204,999,388,.89978846E-3,.181253E-2,0
STARLINK-37691,2026-114Z,2026-06-11T13:25:06.198528,15.78097845,.00011719,53.1588,230.3175,90.5523,269.5633,0,U,69205,999,388,.10090092E-2,.178574E-2,0
STARLINK-37671,2026-114AA,2026-06-11T11:45:32.474016,15.80916258,.00011743,53.1583,230.5959,67.4082,292.7065,0,U,69206,999,387,.68820052E-3,.137588E-2,0
STARLINK-37647,2026-114AB,2026-06-11T11:46:37.142688,15.80932541,.00009524,53.1585,230.6014,84.0274,276.0857,0,U,69207,999,387,.90521872E-3,.182282E-2,0
STARLINK-37562,2026-114AC,2026-06-11T14:00:01.999872,15.78049237,.0001018,53.1594,230.1368,78.6969,89.2686,0,U,69208,999,391,-.85520942E-4,-.15485E-3,0
STARLINK-37682,2026-114AD,2026-06-11T13:13:20.142048,15.80925909,.00010336,53.1584,230.2636,79.3964,280.7175,0,U,69209,999,388,.76648507E-3,.153675E-2,0
STARLINK-37402,2026-114AE,2026-06-11T13:12:15.319584,15.80941217,.00012701,53.1584,230.2585,58.8663,301.2484,0,U,69210,999,388,.99243634E-3,.200417E-2,0
STARLINK-37613,2026-115A,2026-06-11T14:00:01.999872,15.54014211,.00012318,97.2846,179.6435,92.4055,287.8356,0,U,69211,999,379,-.43238451E-1,-.2435547E-1,0
STARLINK-37713,2026-115B,2026-06-11T14:00:01.999872,15.66560262,.00014785,97.2845,179.7160,85.4348,109.2671,0,U,69212,999,379,-.12094613E-1,-.1141281E-1,0
STARLINK-37716,2026-115C,2026-06-11T14:00:01.999872,15.74647192,.00016955,97.2847,179.7363,102.2335,144.7913,0,U,69213,999,379,-.20552255E-1,-.2611252E-1,0
STARLINK-37620,2026-115D,2026-06-11T14:00:01.999872,15.49097328,.00006752,97.2850,179.6080,63.3550,245.0417,0,U,69214,999,379,.90643931E-3,.49359E-3,0
STARLINK-37700,2026-115E,2026-06-11T14:00:01.999872,15.49187330,.00013273,97.2843,179.5204,98.5210,358.0510,0,U,69215,999,379,.33497767E-3,.18169E-3,0
STARLINK-37766,2026-115F,2026-06-11T14:00:01.999872,15.77000116,.00017047,97.2845,179.7474,94.1234,177.8501,0,U,69216,999,379,-.14554792E-1,-.2028192E-1,0
STARLINK-37763,2026-115G,2026-06-11T14:00:01.999872,15.71942144,.00011457,97.2845,179.7341,100.8021,143.1291,0,U,69217,999,379,-.68685325E-2,-.810987E-2,0
STARLINK-37724,2026-115H,2026-06-11T14:18:22.455936,15.80896186,.00016755,97.2834,179.7676,61.3060,298.8377,0,U,69218,999,380,.12572319E-2,.248575E-2,0
STARLINK-37758,2026-115J,2026-06-11T14:13:45.023808,15.80890757,.0001346,97.2828,179.7726,80.4890,279.6530,0,U,69219,999,380,.10907949E-2,.214752E-2,0
STARLINK-37201,2026-115K,2026-06-11T14:15:31.664736,15.80895034,.00014478,97.2832,179.7711,78.0916,282.0515,0,U,69220,999,380,.11178768E-2,.220272E-2,0
STARLINK-37728,2026-115L,2026-06-11T12:40:53.151744,15.80948921,.00023604,97.2830,179.7082,73.7354,286.4174,0,U,69221,999,379,.15418453E-2,.30772E-2,0
STARLINK-37760,2026-115M,2026-06-11T14:15:28.370304,15.85544915,.0003304,97.2832,179.7714,258.8606,101.2293,0,U,69222,999,380,.37743713E-1,.11669154E+0,0
STARLINK-37759,2026-115N,2026-06-11T14:00:01.999872,15.70970513,.0001497,97.2849,179.7520,105.9992,179.0017,0,U,69223,999,379,-.23440652E-1,-.2552267E-1,0
STARLINK-37725,2026-115P,2026-06-11T14:11:40.067808,15.80884742,.00018938,97.2831,179.7747,133.8820,226.2605,0,U,69224,999,380,.78471661E-3,.153324E-2,0
STARLINK-37770,2026-115Q,2026-06-11T14:12:41.067936,15.80868908,.0001682,97.2832,179.7731,76.4627,283.6829,0,U,69225,999,380,.2899972E-3,.559E-3,0
STARLINK-37736,2026-115R,2026-06-11T14:11:40.524000,15.80887096,.00017462,97.2827,179.7746,82.1033,278.0433,0,U,69226,999,380,.10860313E-2,.213756E-2,0
STARLINK-37737,2026-115S,2026-06-11T14:08:48.035040,15.80903153,.00013014,97.2827,179.7766,82.6833,277.4584,0,U,69227,999,380,.11966993E-2,.236339E-2,0
STARLINK-37618,2026-115T,2026-06-11T14:00:01.999872,15.69779529,.00014619,97.2849,179.7590,104.1342,198.1925,0,U,69228,999,379,-.24447765E-1,-.2534769E-1,0
